HELIOS 2A               
1 28492U 04049A   22333.42318374  .00001275  00000+0  12667-3 0  9996
2 28492  98.2537 284.3339 0012749 259.8170 100.1635 14.93624042959743
SPIRALE A               
1 33751U 09008C   22332.78822695  .00000148  00000+0  44178-3 0  9994
2 33751   2.0672  97.7166 5457297 197.9928 130.3043  4.58889627202362
SPIRALE B               
1 33752U 09008D   22333.23747256  .00001471  00000+0  68582-3 0  9990
2 33752   2.2128  28.6130 6838240 326.6557   4.8208  2.83453080129795
SAPPHIRE                
1 39088U 13009C   22332.76996927  .00000051  00000+0  33281-4 0  9994
2 39088  98.4171 164.3777 0012005 143.8450 216.3549 14.34345803510672
